FORMOSAT 7-5            
1 44358U 19036V   25302.50201642  .00005067  00000+0  38970-3 0  9992
2 44358  24.0002  24.6975 0001217  39.6688 320.3902 14.98340649347740
METEOR-M2 2             
1 44387U 19038A   25302.47897545  .00000240  00000+0  12386-3 0  9996
2 44387  98.8929 281.6760 0001133  16.3684 343.7531 14.24262711328457
COSMOS 2535             
1 44421U 19039A   25302.51207550  .00002083  00000+0  21506-3 0  9993
2 44421  97.6051 334.2559 0006993 259.6905 100.3525 14.91189046342254
GLOBAL-4                
1 44499U 19054E   25302.48925766  .00030045  00000+0  62160-3 0  9997
2 44499  45.0093 107.7002 0008503 251.8340 108.1625 15.45279409344469
ZY-1 02D                
1 44528U 19059A   25302.48603267  .00000247  00000+0  10061-3 0  9998
2 44528  98.3527   6.7579 0002493  95.7651 264.3819 14.35431961321246
TAURUS-1 (JINNIUZUO 1)  
1 44530U 19059C   25302.48562470  .00010817  00000+0  18899-2 0  9991
2 44530  98.6219  88.9433 0008719 312.6614  47.3854 14.68077543324742
ZHUHAI-1 03B            
1 44536U 19060C   25302.53658177  .00028894  00000+0  75354-3 0  9999
2 44536  97.5343  85.8830 0012146  78.5192 281.7417 15.38722191340672
ZHUHAI-1 03C            
1 44537U 19060D   25302.48680148  .00048518  00000+0  81944-3 0  9994
2 44537  97.5573  91.3778 0015312  38.9703 321.2649 15.51348181341022
ZHUHAI-1 03D            
1 44538U 19060E   25302.51096297  .00026525  00000+0  76461-3 0  9997
2 44538  97.5174  79.8675 0011080  63.1612 297.0763 15.35641422340510
ZHUHAI-1 03E            
1 44539U 19060F   25302.57466740  .00021948  00000+0  71707-3 0  9990
2 44539  97.5374  81.5711 0011056 115.7924 244.4459 15.31700945340359
ATLAS 5 CENTAUR DEB     
1 44694U 18079BG  25285.87738219 -.00000100  00000+0  00000+0 0  9999
2 44694  13.3559  59.3952 4745602 259.3795  45.7896  1.77426823 42179
GAOFEN-7                
1 44703U 19072A   25302.53971167  .00007620  00000+0  34494-3 0  9999
2 44703  97.2759   7.2430 0016810 122.2010 238.0859 15.21035898332576
STARLINK-1010           
1 44716U 19074D   25302.58336806  .00486178  11033-3  10535-2 0  9995
2 44716  53.0425 341.8256 0005494  52.8143  99.7562 15.97796985  6018
JILIN-1 GAOFEN 2A       
1 44777U 19075A   25302.47362116  .00018601  00000+0  61088-3 0  9994
2 44777  97.5190  16.8951 0007781 178.2635 181.8634 15.31597705329476
NINGXIA-1 1             
1 44779U 19076A   25302.51654478  .00000027  00000+0  10218-3 0  9999
2 44779  45.0048 130.6416 0010994 146.0413 214.1127 14.01989323305485
NINGXIA-1 5             
1 44783U 19076E   25302.52944096  .00000046  00000+0  11448-3 0  9990
2 44783  45.0047 129.9292 0010797 134.4491 225.7228 14.01974292305401
KL-ALPHA A              
1 44785U 19077A   25302.53032166  .00000104  00000+0  13041-3 0  9996
2 44785  88.9129 247.9451 0013140  65.3367 294.9154 13.56012122294471
CARTOSAT-3              
1 44804U 19081A   25301.64478304  .00006618  00000+0  31537-3 0  9998
2 44804  97.4642   1.7832 0013054 237.6322 122.3650 15.19378087328318
JILIN-1 GAOFEN 2B       
1 44836U 19086A   25302.46632096  .00009698  00000+0  49149-3 0  9998
2 44836  97.5167  11.1172 0016132  47.6147 312.6448 15.17062960325462
DUCHIFAT-3              
1 44854U 19089C   25302.30133854  .00231405  00000+0  17662-2 0  9999
2 44854  36.9320 163.0254 0009690 315.9025  44.0966 15.70508838325082
ANGELS                  
1 44876U 19092D   25302.49584641  .00052273  00000+0  78575-3 0  9996
2 44876  97.4401 145.3119 0005224 349.3326  10.7816 15.54690262326108
TIANQIN 1 (CAS-6)       
1 44879U 19093A   25302.53183296  .00004509  00000+0  43094-3 0  9993
2 44879  97.7987  23.1139 0012907 101.0902 259.1770 14.93697724317590
ETRSS-1                 
1 44880U 19093B   25302.52165361  .00005594  00000+0  53042-3 0  9996
2 44880  97.7998  23.4068 0013296 102.1389 258.1322 14.93901546317593
TIANYAN 01              
1 44881U 19093C   25302.46152637  .00001546  00000+0  18296-3 0  9997
2 44881  97.7804  15.0769 0014900 122.7802 237.4851 14.85948270317140
TIANYAN 02              
1 44882U 19093D   25302.50265008  .00009943  00000+0  77685-3 0  9996
2 44882  97.8066  30.6791 0017074  92.2925 268.0253 15.01190072317955
CBERS 4A                
1 44883U 19093E   25302.52545706  .00001663  00000+0  21830-3 0  9997
2 44883  97.7797  11.8336 0001737 150.6430 209.4881 14.81573686316926
WEILAI 1R               
1 44884U 19093F   25302.48935940  .00006921  00000+0  59295-3 0  9994
2 44884  97.8025  27.2595 0010533  94.4693 265.7733 14.97825157317854
FLORIPASAT-1            
1 44885U 19093G   25302.50739361  .00009021  00000+0  72168-3 0  9995
2 44885  97.8070  30.5129 0011571 107.7245 252.5242 15.00379002318015
SHUNTIAN                
1 44886U 19093H   25302.47601966  .00004130  00000+0  39726-3 0  9990
2 44886  97.8147  26.9464 0013391 111.0947 249.1705 14.93484183317722
2019-093L               
1 44889U 19093L   25302.48291388  .00005295  00000+0  51778-3 0  9991
2 44889  97.7777  18.4868 0013629  99.0041 261.2721 14.92695249317360
ELEKTRO-L 3             
1 44903U 19095A   25302.48615779 -.00000088  00000+0  00000+0 0  9998
2 44903   0.0551  56.3202 0001929 202.2430  30.5980  1.00271782 21393
GONETS-M 14             
1 44905U 19096A   25302.50317106  .00000059  00000+0  35371-3 0  9997
2 44905  82.5250 227.6168 0012972 301.5257  58.4556 12.42898384265029
GONETS-M 15             
1 44906U 19096B   25302.53024632  .00000067  00000+0  41568-3 0  9994
2 44906  82.5268 228.0208 0015481 324.1136  35.8903 12.42863387264999
GONETS-M 16             
1 44907U 19096C   25302.47938823  .00000053  00000+0  31315-3 0  9998
2 44907  82.5215 227.1132 0012003   5.9837 354.1383 12.42860290264974
RS-44 & BREEZE-KM R/B   
1 44909U 19096E   25302.52956558  .00000022  00000+0  47816-4 0  9991
2 44909  82.5182 132.9906 0216927 323.9074  34.7545 12.79744894272845
JILIN-1 KUANFU 01       
1 45016U 20003A   25302.50070300  .00005856  00000+0  35751-3 0  9995
2 45016  97.5285  15.8352 0006384  76.0170 284.1770 15.10667087320511
XINGYUN-2 01            
1 45602U 20028A   25302.51145008  .00003770  00000+0  23359-3 0  9996
2 45602  97.4760 294.9186 0007464 281.2577  78.7814 15.10341626300001
XINGYUN-2 02            
1 45603U 20028B   25302.52198299  .00003327  00000+0  20749-3 0  9996
2 45603  97.5109 307.7739 0010977 354.3667   5.7437 15.10169673300003
HAIYANG-1D              
1 45721U 20036A   25302.46728876  .00000326  00000+0  13149-3 0  9991
2 45721  98.4293 244.4809 0003978 108.1858 251.9760 14.34210693281908
M2 PATHFINDER           
1 45727U 20037E   25302.45032237  .00004293  00000+0  32236-3 0  9991
2 45727  97.8172 126.2702 0011361 205.4553 154.6113 15.03109264290819
GAOFEN DUOMO (GFDM)     
1 45856U 20042A   25302.50694186  .00001330  00000+0  19592-3 0  9992
2 45856  97.8088   5.3717 0013071  98.6013 261.6679 14.76917727286961
ZINYUAN-3               
1 45939U 20051A   25302.52287397  .00007515  00000+0  33726-3 0  9994
2 45939  97.3131  12.3079 0005531  95.5372 264.6495 15.21453799292277
TYVAK-0172              
1 46267U 20059C   25302.36355681  .00067948  00000+0  14340-2 0  9997
2 46267  97.7378 169.5922 0003209  62.3473 297.8100 15.44965562282737
ION-MK01                
1 46274U 20061C   25302.42248861  .00064962  00000+0  75701-3 0  9998
2 46274  97.2252  11.8122 0002252  81.0415 279.1098 15.61464616287022
NEMO-HD                 
1 46277U 20061F   25302.43542985  .00013725  00000+0  35695-3 0  9995
2 46277  97.2273   2.1236 0002387 118.4154 241.7333 15.39028505286429
3CAT-5A                 
1 46292U 20061W   25302.44034257  .00020002  00000+0  54009-3 0  9997
2 46292  97.2767   1.4743 0001225 191.1738 168.9480 15.37793921285460
3CAT-5B                 
1 46293U 20061X   25301.41295127  .00018893  00000+0  49904-3 0  9992
2 46293  97.2771   1.0607 0001402 202.0862 158.0324 15.38485275285310
NAPA-1                  
1 46320U 20061BA  25302.46299281  .00025014  00000+0  51658-3 0  9996
2 46320  97.2833   7.8115 0001943 121.1361 239.0079 15.45833409285864
JILIN-1 GAOFEN 3B       
1 46454U 20065A   25302.50499926  .00058044  00000+0  88012-3 0  9994
2 46454  97.2614 351.3063 0002600 226.7759 133.3278 15.54436999284209
JILIN-1 GAOFEN 3E       
1 46457U 20065D   25302.51418397  .00031417  00000+0  70071-3 0  9992
2 46457  97.2667 347.9421 0016459 290.8586  69.0900 15.43370285283968
JILIN-1 GAOFEN 3F       
1 46458U 20065E   25302.49834119  .00031057  00000+0  71410-3 0  9992
2 46458  97.2602 345.9805 0017637 276.7822  83.1418 15.42441870283944
JILIN-1 GAOFEN 3G       
1 46459U 20065F   25302.46359844  .00036930  00000+0  76348-3 0  9997
2 46459  97.2707 350.5079 0017713 176.7671 183.3696 15.45555906284044
JILIN-1 GAOFEN 3H       
1 46460U 20065G   25302.46211418  .00035367  00000+0  74788-3 0  9992
2 46460  97.2621 347.5891 0012328 110.6468 249.6104 15.44989440284028
JILIN-1 GAOFEN 3J       
1 46462U 20065J   25302.47155281  .00054059  00000+0  86505-3 0  9999
2 46462  97.2645 351.0184 0003573 232.2993 127.7936 15.52959783284189
HAIYANG-2C              
1 46469U 20066A   25302.54544664  .00000005  00000+0  78453-4 0  9998
2 46469  65.9962  69.5290 0014111 271.2852  88.6600 13.83377314257590
HJ-2A                   
1 46478U 20067A   25302.48607706  .00001273  00000+0  18943-3 0  9994
2 46478  97.9046  21.0642 0001800 275.0265  85.0740 14.76612128274215
HJ-2B                   
1 46479U 20067B   25302.52239561  .00001244  00000+0  18532-3 0  9992
2 46479  97.9102  21.9534 0002514  75.0044 285.1444 14.76607805274225
GONETS-M 17             
1 46486U 20068A   25302.50137797  .00000040  00000+0  21853-3 0  9990
2 46486  82.4940 131.0201 0022571 177.4317 182.6883 12.42863576230502
GONETS-M 18             
1 46487U 20068B   25302.54797712  .00000066  00000+0  40143-3 0  9995
2 46487  82.4893 130.2004 0019988 173.8891 186.2436 12.42890087230496
